{
  "type": "FeatureCollection",
  "features": [
    {
      "type": "Feature",
      "properties": {
        "district_id": "89:13",
        "district_name": "Муравленко",
        "stat_kvartal_total": 42
      },
      "geometry": {
        "type": "Polygon",
        "coordinates": [
          [
            [
              98.58295703329208,
              103.04749124102062
            ],
            [
              99.09684450139271,
              103.04749124102062
            ],
            [
              99.09684450139271,
              103.99317481304118
            ],
            [
              98.58295703329208,
              103.99317481304118
            ],
            [
              98.58295703329208,
              103.04749124102062
            ]
          ]
        ]
      }
    },
    {
      "type": "Feature",
      "properties": {
        "district_id": "89:14",
        "district_name": "Губкинский",
        "stat_kvartal_total": 35
      },
      "geometry": {
        "type": "Polygon",
        "coordinates": [
          [
            [
              100.40989488480298,
              105.05809009709154
            ],
            [
              100.75554685930874,
              105.05809009709154
            ],
            [
              100.75554685930874,
              105.25993828560793
            ],
            [
              100.40989488480298,
              105.25993828560793
            ],
            [
              100.40989488480298,
              105.05809009709154
            ]
          ]
        ]
      }
    },
    {
      "type": "Feature",
      "properties": {
        "district_id": "89:10",
        "district_name": "Надым",
        "stat_kvartal_total": 31
      },
      "geometry": {
        "type": "Polygon",
        "coordinates": [
          [
            [
              96.65829245279586,
              107.55852903987261
            ],
            [
              96.9307781314754,
              107.55852903987261
            ],
            [
              96.9307781314754,
              107.90246072535965
            ],
            [
              96.65829245279586,
              107.90246072535965
            ],
            [
              96.65829245279586,
              107.55852903987261
            ]
          ]
        ]
      }
    },
    {
      "type": "Feature",
      "properties": {
        "district_id": "89:7",
        "district_name": "Красноселькупский",
        "stat_kvartal_total": 52
      },
      "geometry": {
        "type": "Polygon",
        "coordinates": [
          [
            [
              103.40546607839127,
              100.18617815515395
            ],
            [
              110.21839632272017,
              100.18617815515395
            ],
            [
              110.21839632272017,
              111.41659621716667
            ],
            [
              103.40546607839127,
              111.41659621716667
            ],
            [
              103.40546607839127,
              100.18617815515395
            ]
          ]
        ]
      }
    },
    {
      "type": "Feature",
      "properties": {
        "district_id": "89:11",
        "district_name": "Новый Уренгой",
        "stat_kvartal_total": 64
      },
      "geometry": {
        "type": "Polygon",
        "coordinates": [
          [
            [
              100.5799014649354,
              109.07268217472621
            ],
            [
              101.03925147142162,
              109.07268217472621
            ],
            [
              101.03925147142162,
              109.34639269109118
            ],
            [
              100.5799014649354,
              109.34639269109118
            ],
            [
              100.5799014649354,
              109.07268217472621
            ]
          ]
        ]
      }
    },
    {
      "type": "Feature",
      "properties": {
        "district_id": "89:12",
        "district_name": "Ноябрьск",
        "stat_kvartal_total": 141
      },
      "geometry": {
        "type": "Polygon",
        "coordinates": [
          [
            [
              99.04082196131243,
              101.86524792074846
            ],
            [
              101.26269068062504,
              101.86524792074846
            ],
            [
              101.26269068062504,
              102.88861309976144
            ],
            [
              99.04082196131243,
              102.88861309976144
            ],
            [
              99.04082196131243,
              101.86524792074846
            ]
          ]
        ]
      }
    },
    {
      "type": "Feature",
      "properties": {
        "district_id": "89:2",
        "district_name": "Приуральский",
        "stat_kvartal_total": 45
      },
      "geometry": {
        "type": "Polygon",
        "coordinates": [
          [
            [
              88.66825503264441,
              104.9209882736319
            ],
            [
              94.89279539153766,
              104.9209882736319
            ],
            [
              94.89279539153766,
              117.55695007645045
            ],
            [
              88.66825503264441,
              117.55695007645045
            ],
            [
              88.66825503264441,
              104.9209882736319
            ]
          ]
        ]
      }
    },
    {
      "type": "Feature",
      "properties": {
        "district_id": "89:4",
        "district_name": "Надымский",
        "stat_kvartal_total": 81
      },
      "geometry": {
        "type": "Polygon",
        "coordinates": [
          [
            [
              92.79923163620703,
              102.36463715758775
            ],
            [
              101.57064622756224,
              102.36463715758775
            ],
            [
              101.57064622756224,
              116.59373862620362
            ],
            [
              92.79923163620703,
              116.59373862620362
            ],
            [
              92.79923163620703,
              102.36463715758775
            ]
          ]
        ]
      }
    },
    {
      "type": "Feature",
      "properties": {
        "district_id": "89:9",
        "district_name": "Лабытнанги",
        "stat_kvartal_total": 76
      },
      "geometry": {
        "type": "Polygon",
        "coordinates": [
          [
            [
              90.3188607469463,
              110.17280509126036
            ],
            [
              90.8597624868373,
              110.17280509126036
            ],
            [
              90.8597624868373,
              110.87578844558197
            ],
            [
              90.3188607469463,
              110.87578844558197
            ],
            [
              90.3188607469463,
              110.17280509126036
            ]
          ]
        ]
      }
    },
    {
      "type": "Feature",
      "properties": {
        "district_id": "89:5",
        "district_name": "Пуровский",
        "stat_kvartal_total": 115
      },
      "geometry": {
        "type": "Polygon",
        "coordinates": [
          [
            [
              97.2298127355136,
              100.76583979175099
            ],
            [
              105.04266311027423,
              100.76583979175099
            ],
            [
              105.04266311027423,
              113.34097938957566
            ],
            [
              97.2298127355136,
              113.34097938957566
            ],
            [
              97.2298127355136,
              100.76583979175099
            ]
          ]
        ]
      }
    },
    {
      "type": "Feature",
      "properties": {
        "district_id": "89:1",
        "district_name": "Шурышкарский",
        "stat_kvartal_total": 51
      },
      "geometry": {
        "type": "Polygon",
        "coordinates": [
          [
            [
              86.14228401545407,
              104.23149730066234
            ],
            [
              93.207282994711,
              104.23149730066234
            ],
            [
              93.207282994711,
              111.13649297362073
            ],
            [
              86.14228401545407,
              111.13649297362073
            ],
            [
              86.14228401545407,
              104.23149730066234
            ]
          ]
        ]
      }
    },
    {
      "type": "Feature",
      "properties": {
        "district_id": "89:3",
        "district_name": "Ямальский",
        "stat_kvartal_total": 86
      },
      "geometry": {
        "type": "Polygon",
        "coordinates": [
          [
            [
              90.57236304368098,
              110.02244136000729
            ],
            [
              98.14862473077577,
              110.02244136000729
            ],
            [
              98.14862473077577,
              130.8363885291766
            ],
            [
              90.57236304368098,
              130.8363885291766
            ],
            [
              90.57236304368098,
              110.02244136000729
            ]
          ]
        ]
      }
    },
    {
      "type": "Feature",
      "properties": {
        "district_id": "89:6",
        "district_name": "Тазовский",
        "stat_kvartal_total": 73
      },
      "geometry": {
        "type": "Polygon",
        "coordinates": [
          [
            [
              96.04076727180566,
              109.82553565698954
            ],
            [
              107.0750823050109,
              109.82553565698954
            ],
            [
              107.0750823050109,
              131.29851460376938
            ],
            [
              96.04076727180566,
              131.29851460376938
            ],
            [
              96.04076727180566,
              109.82553565698954
            ]
          ]
        ]
      }
    },
    {
      "type": "Feature",
      "properties": {
        "district_id": "89:8",
        "district_name": "Салехард",
        "stat_kvartal_total": 34
      },
      "geometry": {
        "type": "Polygon",
        "coordinates": [
          [
            [
              90.18217860790594,
              109.05379585992603
            ],
            [
              91.04106084904559,
              109.05379585992603
            ],
            [
              91.04106084904559,
              110.5091144776955
            ],
            [
              90.18217860790594,
              110.5091144776955
            ],
            [
              90.18217860790594,
              109.05379585992603
            ]
          ]
        ]
      }
    }
  ]
}