{
  "type": "FeatureCollection",
  "features": [
    {
      "type": "Feature",
      "properties": {
        "name": "Yamalo-Nenetskiy A.Okr",
        "quarter_id": "Yamalo-Nen"
      },
      "geometry": {
        "type": "MultiPolygon",
        "coordinates": [
          [
            [
              [
                70.0572265625,
                66.599462890625
              ],
              [
                70.11005859375001,
                66.569091796875
              ],
              [
                70.0591796875,
                66.517578125
              ],
              [
                70.02070312500001,
                66.502197265625
              ],
              [
                69.8447265625,
                66.48974609375
              ],
              [
                69.6513671875,
                66.56533203125
              ],
              [
                69.4693359375,
                66.715966796875
              ],
              [
                69.50273437500002,
                66.75107421875
              ],
              [
                69.61640625000001,
                66.739013671875
              ],
              [
                69.800390625,
                66.736474609375
              ],
              [
                69.917578125,
                66.711669921875
              ],
              [
                70.07666015625,
                66.6958984375
              ],
              [
                70.0576171875,
                66.627197265625
              ],
              [
                70.0572265625,
                66.599462890625
              ]
            ]
          ],
          [
            [
              [
                65.0362402510262,
                69.26873497135483
              ],
              [
                65.3267578125,
                69.2013671875
              ],
              [
                65.5279296875,
                69.1734375
              ],
              [
                65.73574218750002,
                69.13232421875
              ],
              [
                65.81269531250001,
                69.077001953125
              ],
              [
                66.08476562500002,
                69.036328125
              ],
              [
                66.41611328125,
                68.9478515625
              ],
              [
                66.7564453125,
                68.8919921875
              ],
              [
                67.00244140625,
                68.873583984375
              ],
              [
                67.14921875000002,
                68.753955078125
              ],
              [
                67.6396484375,
                68.579296875
              ],
              [
                67.73076171875002,
                68.513671875
              ],
              [
                68.15693359375001,
                68.403662109375
              ],
              [
                68.37119140625,
                68.3142578125
              ],
              [
                68.50419921875002,
                68.3484375
              ],
              [
                68.82949218750002,
                68.567431640625
              ],
              [
                69.02431640625002,
                68.81796875
              ],
              [
                69.14052734375002,
                68.950634765625
              ],
              [
                68.9244140625,
                68.956201171875
              ],
              [
                68.76289062500001,
                68.9173828125
              ],
              [
                68.65957031250002,
                68.927392578125
              ],
              [
                68.54277343750002,
                68.96708984375
              ],
              [
                68.355078125,
                69.067578125
              ],
              [
                68.11738281250001,
                69.23623046875
              ],
              [
                68.07304687500002,
                69.42080078125
              ],
              [
                68.005859375,
                69.480029296875
              ],
              [
                67.77431640625002,
                69.52998046875
              ],
              [
                67.62412109375,
                69.584423828125
              ],
              [
                67.064453125,
                69.693701171875
              ],
              [
                66.96406250000001,
                69.65556640625
              ],
              [
                66.9341796875,
                69.5966796875
              ],
              [
                66.89667968750001,
                69.55380859375
              ],
              [
                66.84023437500002,
                69.6091796875
              ],
              [
                66.80400390625002,
                69.659228515625
              ],
              [
                66.80292968750001,
                69.74013671875
              ],
              [
                66.83222656250001,
                69.8421875
              ],
              [
                66.9263671875,
                70.0142578125
              ],
              [
                67.06904296875001,
                70.005615234375
              ],
              [
                67.14443359375002,
                70.030615234375
              ],
              [
                67.2392578125,
                70.108056640625
              ],
              [
                67.19746093750001,
                70.171630859375
              ],
              [
                67.146484375,
                70.219921875
              ],
              [
                67.1568359375,
                70.2951171875
              ],
              [
                67.24687500000002,
                70.50009765625
              ],
              [
                67.284765625,
                70.738720703125
              ],
              [
                67.2115234375,
                70.7984375
              ],
              [
                67.14335937500002,
                70.837548828125
              ],
              [
                66.82246093750001,
                70.79736328125
              ],
              [
                66.70224609375,
                70.818505859375
              ],
              [
                66.67519531250002,
                70.864697265625
              ],
              [
                66.66611328125,
                70.9005859375
              ],
              [
                66.7587890625,
                70.962353515625
              ],
              [
                66.84707031250002,
                71.063720703125
              ],
              [
                66.69257812500001,
                71.04169921875
              ],
              [
                66.6396484375,
                71.081396484375
              ],
              [
                66.76806640625,
                71.139892578125
              ],
              [
                66.917578125,
                71.282373046875
              ],
              [
                67.27421875000002,
                71.3478515625
              ],
              [
                67.54179687500002,
                71.41201171875
              ],
              [
                67.95937500000002,
                71.548388671875
              ],
              [
                68.26923828125001,
                71.6828125
              ],
              [
                68.46943359375001,
                71.85263671875
              ],
              [
                68.607421875,
                72.012744140625
              ],
              [
                68.8296875,
                72.391552734375
              ],
              [
                69.0390625,
                72.669921875
              ],
              [
                69.39140625000002,
                72.955517578125
              ],
              [
                69.61181640625,
                72.98193359375
              ],
              [
                69.6943359375,
                72.9775390625
              ],
              [
                69.708984375,
                72.956396484375
              ],
              [
                69.6587890625,
                72.9318359375
              ],
              [
                69.6451171875,
                72.89755859375
              ],
              [
                69.73828125,
                72.8849609375
              ],
              [
                69.88750000000002,
                72.882568359375
              ],
              [
                70.17216796875002,
                72.901171875
              ],
              [
                70.65537109375,
                72.890380859375
              ],
              [
                71.50019531250001,
                72.913671875
              ],
              [
                71.61699218750002,
                72.902099609375
              ],
              [
                71.92958984375002,
                72.819677734375
              ],
              [
                72.10097656250002,
                72.82900390625
              ],
              [
                72.44638671875,
                72.79033203125
              ],
              [
                72.6337890625,
                72.744482421875
              ],
              [
                72.812109375,
                72.69140625
              ],
              [
                72.78740234375002,
                72.482958984375
              ],
              [
                72.7529296875,
                72.3431640625
              ],
              [
                72.62441406250002,
                72.079443359375
              ],
              [
                72.57412109375002,
                72.012548828125
              ],
              [
                72.375,
                71.821630859375
              ],
              [
                72.27949218750001,
                71.6955078125
              ],
              [
                72.12968750000002,
                71.6091796875
              ],
              [
                71.91201171875002,
                71.54794921875
              ],
              [
                71.884375,
                71.511376953125
              ],
              [
                71.86728515625,
                71.457373046875
              ],
              [
                72.07929687500001,
                71.306689453125
              ],
              [
                72.58134765625002,
                71.151123046875
              ],
              [
                72.70449218750002,
                70.963232421875
              ],
              [
                72.73164062500001,
                70.8228515625
              ],
              [
                72.70000000000002,
                70.45732421875
              ],
              [
                72.6533203125,
                70.40341796875
              ],
              [
                72.56191406250002,
                70.345556640625
              ],
              [
                72.46943359375001,
                70.274951171875
              ],
              [
                72.52968750000002,
                70.172509765625
              ],
              [
                72.59941406250002,
                69.793212890625
              ],
              [
                72.61562500000002,
                69.484033203125
              ],
              [
                72.55732421875001,
                69.37841796875
              ],
              [
                72.52705078125001,
                69.154248046875
              ],
              [
                72.52734375,
                69.080517578125
              ],
              [
                72.5767578125,
                68.968701171875
              ],
              [
                72.6783203125,
                68.874853515625
              ],
              [
                72.81191406250002,
                68.815234375
              ],
              [
                73.19072265625002,
                68.706787109375
              ],
              [
                73.54804687500001,
                68.57451171875
              ],
              [
                73.57343750000001,
                68.5326171875
              ],
              [
                73.59169921875002,
                68.481884765625
              ],
              [
                73.46523437500002,
                68.43076171875
              ],
              [
                73.26640625000002,
                68.294482421875
              ],
              [
                73.13945312500002,
                68.18134765625
              ],
              [
                73.12939453125,
                68.09091796875
              ],
              [
                73.17304687500001,
                67.973046875
              ],
              [
                73.15214843750002,
                67.8650390625
              ],
              [
                73.06679687500002,
                67.766943359375
              ],
              [
                72.94873046875,
                67.696240234375
              ],
              [
                72.5943359375,
                67.586962890625
              ],
              [
                71.84746093750002,
                67.0076171875
              ],
              [
                71.66816406250001,
                66.939697265625
              ],
              [
                71.365234375,
                66.9615234375
              ],
              [
                71.44892578125001,
                66.878955078125
              ],
              [
                71.55117187500002,
                66.76044921875
              ],
              [
                71.53955078125,
                66.68310546875
              ],
              [
                71.34199218750001,
                66.68671875
              ],
              [
                71.06562500000001,
                66.6044921875
              ],
              [
                70.939453125,
                66.54814453125
              ],
              [
                70.72490234375002,
                66.51943359375
              ],
              [
                70.56142578125002,
                66.548681640625
              ],
              [
                70.3828125,
                66.602490234375
              ],
              [
                70.40888671875001,
                66.647607421875
              ],
              [
                70.44257812500001,
                66.66826171875
              ],
              [
                70.56796875,
                66.70087890625
              ],
              [
                70.69072265625002,
                66.7453125
              ],
              [
                70.63076171875002,
                66.75419921875
              ],
              [
                70.5791015625,
                66.753759765625
              ],
              [
                70.4439453125,
                66.697314453125
              ],
              [
                70.28339843750001,
                66.685791015625
              ],
              [
                70.09375,
                66.754345703125
              ],
              [
                69.94863281250002,
                66.82998046875
              ],
              [
                69.87714843750001,
                66.845458984375
              ],
              [
                69.74042968750001,
                66.814599609375
              ],
              [
                69.2177734375,
                66.82861328125
              ],
              [
                69.0787109375,
                66.81591796875
              ],
              [
                69.01347656250002,
                66.788330078125
              ],
              [
                69.05117187500002,
                66.766357421875
              ],
              [
                69.09111328125002,
                66.723583984375
              ],
              [
                69.14394531250002,
                66.64072265625
              ],
              [
                69.1943359375,
                66.578662109375
              ],
              [
                69.41201171875002,
                66.5107421875
              ],
              [
                69.70097656250002,
                66.4845703125
              ],
              [
                69.982421875,
                66.401416015625
              ],
              [
                70.339453125,
                66.3423828125
              ],
              [
                71.1455078125,
                66.366650390625
              ],
              [
                71.3580078125,
                66.359423828125
              ],
              [
                71.56562500000001,
                66.333740234375
              ],
              [
                71.9169921875,
                66.246728515625
              ],
              [
                72.06757812500001,
                66.2533203125
              ],
              [
                72.32158203125002,
                66.33212890625
              ],
              [
                72.38398437500001,
                66.50654296875
              ],
              [
                72.41738281250002,
                66.560791015625
              ],
              [
                73.34160156250002,
                66.8068359375
              ],
              [
                73.51357421875002,
                66.861083984375
              ],
              [
                73.79208984375,
                66.9953125
              ],
              [
                73.88330078125,
                67.0849609375
              ],
              [
                73.98623046875002,
                67.327685546875
              ],
              [
                74.07451171875002,
                67.414111328125
              ],
              [
                74.67607421875002,
                67.69462890625
              ],
              [
                74.76953125,
                67.766357421875
              ],
              [
                74.78730468750001,
                67.897509765625
              ],
              [
                74.77822265625002,
                67.9859375
              ],
              [
                74.74267578125,
                68.07353515625
              ],
              [
                74.632421875,
                68.218310546875
              ],
              [
                74.51123046875,
                68.303076171875
              ],
              [
                74.39140625000002,
                68.42060546875
              ],
              [
                74.48095703125,
                68.65888671875
              ],
              [
                74.57958984375,
                68.751220703125
              ],
              [
                75.124609375,
                68.86171875
              ],
              [
                75.58955078125001,
                68.901171875
              ],
              [
                76.10751953125003,
                68.975732421875
              ],
              [
                76.31601562500003,
                68.99150390625
              ],
              [
                76.45917968750001,
                68.978271484375
              ],
              [
                76.60576171874999,
                68.897607421875
              ],
              [
                76.73505859375001,
                68.776904296875
              ],
              [
                77.11171875000002,
                68.59619140625
              ],
              [
                77.23847656250001,
                68.469580078125
              ],
              [
                77.26103515624999,
                68.315576171875
              ],
              [
                77.24843750000002,
                67.941015625
              ],
              [
                77.17441406250003,
                67.778515625
              ],
              [
                77.32509765625002,
                67.73564453125
              ],
              [
                77.39560546875003,
                67.698681640625
              ],
              [
                77.57919921875003,
                67.6439453125
              ],
              [
                77.67509765624999,
                67.589599609375
              ],
              [
                77.77158203125003,
                67.570263671875
              ],
              [
                77.98554687500001,
                67.5591796875
              ],
              [
                78.58955078125001,
                67.578466796875
              ],
              [
                78.92246093750003,
                67.589111328125
              ],
              [
                78.88759765625002,
                67.613134765625
              ],
              [
                78.83906250000001,
                67.631201171875
              ],
              [
                78.55908203125,
                67.639111328125
              ],
              [
                78.16123046875003,
                67.678369140625
              ],
              [
                77.58828125000002,
                67.751904296875
              ],
              [
                77.52011718750003,
                67.909619140625
              ],
              [
                77.53593749999999,
                68.007666015625
              ],
              [
                77.66484374999999,
                68.190380859375
              ],
              [
                77.7568359375,
                68.22236328125
              ],
              [
                77.86826171875003,
                68.234716796875
              ],
              [
                77.9951171875,
                68.25947265625
              ],
              [
                77.95869140625001,
                68.37705078125
              ],
              [
                77.90683593750003,
                68.482275390625
              ],
              [
                77.78525390625003,
                68.63046875
              ],
              [
                77.65068359374999,
                68.90302734375
              ],
              [
                77.46630859375,
                68.905126953125
              ],
              [
                77.32832031250001,
                68.958642578125
              ],
              [
                76.64492187500002,
                69.1173828125
              ],
              [
                76.0009765625,
                69.23505859375
              ],
              [
                75.5611328125,
                69.251806640625
              ],
              [
                75.42001953125,
                69.238623046875
              ],
              [
                75.05351562500002,
                69.11630859375
              ],
              [
                74.81484375000002,
                69.090576171875
              ],
              [
                74.36259765625002,
                69.144580078125
              ],
              [
                73.97744140625002,
                69.1146484375
              ],
              [
                73.83603515625,
                69.143212890625
              ],
              [
                73.77568359375002,
                69.1982421875
              ],
              [
                73.89091796875002,
                69.41796875
              ],
              [
                73.83271484375001,
                69.50390625
              ],
              [
                73.66328125000001,
                69.61708984375
              ],
              [
                73.56015625,
                69.7072265625
              ],
              [
                73.578125,
                69.802978515625
              ],
              [
                73.83017578125,
                70.17568359375
              ],
              [
                73.93740234375002,
                70.2728515625
              ],
              [
                74.20673828125001,
                70.445458984375
              ],
              [
                74.343359375,
                70.5787109375
              ],
              [
                74.31093750000002,
                70.65361328125
              ],
              [
                73.73154296875,
                71.068701171875
              ],
              [
                73.57656250000002,
                71.21650390625
              ],
              [
                73.50722656250002,
                71.263525390625
              ],
              [
                73.365234375,
                71.319775390625
              ],
              [
                73.15048828125,
                71.385205078125
              ],
              [
                73.08623046875002,
                71.444921875
              ],
              [
                73.67177734375002,
                71.845068359375
              ],
              [
                73.939453125,
                71.91474609375
              ],
              [
                74.31123046875001,
                71.9578125
              ],
              [
                74.48906250000002,
                71.997021484375
              ],
              [
                74.80410156250002,
                72.077392578125
              ],
              [
                74.9921875,
                72.14482421875
              ],
              [
                75.05322265625,
                72.19921875
              ],
              [
                75.08994140625,
                72.263134765625
              ],
              [
                75.09707031250002,
                72.420654296875
              ],
              [
                75.06035156250002,
                72.548779296875
              ],
              [
                75.00800781250001,
                72.61943359375
              ],
              [
                74.89687500000002,
                72.710107421875
              ],
              [
                74.78681640625001,
                72.811865234375
              ],
              [
                74.86494140625001,
                72.838427734375
              ],
              [
                74.94218750000002,
                72.85380859375
              ],
              [
                75.15244140625,
                72.852734375
              ],
              [
                75.36933593750001,
                72.796630859375
              ],
              [
                75.47490234375002,
                72.685009765625
              ],
              [
                75.603515625,
                72.5810546875
              ],
              [
                75.603125,
                72.512158203125
              ],
              [
                75.59140625,
                72.4572265625
              ],
              [
                75.64433593750002,
                72.382275390625
              ],
              [
                75.69111328125001,
                72.35
              ],
              [
                75.74140625000001,
                72.296240234375
              ],
              [
                75.69443359375,
                72.253515625
              ],
              [
                75.64433593750002,
                72.23232421875
              ],
              [
                75.55019531250002,
                72.17080078125
              ],
              [
                75.39453125,
                71.983203125
              ],
              [
                75.27382812500002,
                71.958935546875
              ],
              [
                75.24746093750002,
                71.81337890625
              ],
              [
                75.50322265625002,
                71.654638671875
              ],
              [
                75.46855468750002,
                71.534375
              ],
              [
                75.41718750000001,
                71.494677734375
              ],
              [
                75.2802734375,
                71.430078125
              ],
              [
                75.29804687500001,
                71.378466796875
              ],
              [
                75.33203125,
                71.341748046875
              ],
              [
                75.73359375000001,
                71.26591796875
              ],
              [
                76.11044921875003,
                71.2185546875
              ],
              [
                76.74199218749999,
                71.20205078125
              ],
              [
                76.92900390624999,
                71.127880859375
              ],
              [
                76.99521484375003,
                71.1810546875
              ],
              [
                77.58964843749999,
                71.167919921875
              ],
              [
                78.06826171875002,
                70.986328125
              ],
              [
                78.32060546874999,
                70.930419921875
              ],
              [
                78.52578125000002,
                70.91181640625
              ],
              [
                78.94218749999999,
                70.9337890625
              ],
              [
                79.01542968749999,
                70.9501953125
              ],
              [
                79.08388671875002,
                71.002001953125
              ],
              [
                78.888671875,
                70.99716796875
              ],
              [
                78.80351562499999,
                70.97353515625
              ],
              [
                78.72392578124999,
                70.9759765625
              ],
              [
                78.58769531249999,
                70.993896484375
              ],
              [
                78.49140625000001,
                71.025390625
              ],
              [
                78.38652343749999,
                71.087109375
              ],
              [
                78.21259765625001,
                71.26630859375
              ],
              [
                77.90839843750001,
                71.324072265625
              ],
              [
                77.70664062500003,
                71.3005859375
              ],
              [
                77.48105468750003,
                71.311572265625
              ],
              [
                77.11367187500002,
                71.409375
              ],
              [
                76.87119140625003,
                71.44658203125
              ],
              [
                76.43339843749999,
                71.552490234375
              ],
              [
                76.31210937500003,
                71.595458984375
              ],
              [
                76.21572265625002,
                71.682861328125
              ],
              [
                76.10361328125003,
                71.82900390625
              ],
              [
                76.03242187500001,
                71.910400390625
              ],
              [
                76.1240234375,
                71.926611328125
              ],
              [
                76.42167968749999,
                72.006005859375
              ],
              [
                76.87138671874999,
                72.0330078125
              ],
              [
                77.06132812499999,
                72.00419921875
              ],
              [
                77.55078125,
                71.84208984375
              ],
              [
                77.77753906250001,
                71.83642578125
              ],
              [
                78.18691406250002,
                71.907080078125
              ],
              [
                78.232421875,
                71.952294921875
              ],
              [
                78.14082031250001,
                72.044677734375
              ],
              [
                78.01640624999999,
                72.092041015625
              ],
              [
                77.78066406250002,
                72.114306640625
              ],
              [
                77.49287109375001,
                72.071728515625
              ],
              [
                77.41083984375001,
                72.107763671875
              ],
              [
                77.43974609374999,
                72.15654296875
              ],
              [
                77.47158203125002,
                72.192138671875
              ],
              [
                77.62529296874999,
                72.201416015625
              ],
              [
                77.73320312499999,
                72.22919921875
              ],
              [
                77.96816406250002,
                72.3287109375
              ],
              [
                78.22539062499999,
                72.37744140625
              ],
              [
                78.48261718750001,
                72.394970703125
              ],
              [
                78.69682986840365,
                72.18032318856427
              ],
              [
                79.41885297968122,
                72.04340648102425
              ],
              [
                79.69490848194084,
                72.05769501401363
              ],
              [
                80.21797732889058,
                71.94248240803665
              ],
              [
                80.33910688667345,
                71.88979828616192
              ],
              [
                80.03638634635274,
                71.8307579620103
              ],
              [
                80.1187585791451,
                71.67485016470329
              ],
              [
                79.86823123608264,
                71.60165049877145
              ],
              [
                79.3826794779755,
                71.61495717982996
              ],
              [
                79.33348351425275,
                71.48111522109053
              ],
              [
                79.14310753758275,
                71.42168732421061
              ],
              [
                79.24470340413876,
                71.31673248981252
              ],
              [
                79.56520063739947,
                71.27735504809698
              ],
              [
                79.95442752471047,
                71.13410797850037
              ],
              [
                80.40318566258821,
                71.0912165393118
              ],
              [
                80.55005008334462,
                71.04444936834363
              ],
              [
                80.55191043531829,
                70.90016876907339
              ],
              [
                80.67986128067355,
                70.80539419188841
              ],
              [
                80.60803104030026,
                70.71018036603101
              ],
              [
                80.7528284044073,
                70.63522370091306
              ],
              [
                80.56906700973468,
                70.46081574205283
              ],
              [
                80.1769462416757,
                70.42955150000171
              ],
              [
                80.09509077282087,
                70.35343211490016
              ],
              [
                79.63020958930105,
                70.22070119930089
              ],
              [
                79.50525597478338,
                70.11541046811857
              ],
              [
                79.2084265478469,
                70.05283030897152
              ],
              [
                79.17121951736681,
                69.97831289342525
              ],
              [
                78.91294070804719,
                69.86090403869042
              ],
              [
                79.1164424986224,
                69.73160960619833
              ],
              [
                79.58535444535136,
                69.58828502133662
              ],
              [
                79.64447228386877,
                69.49139170975957
              ],
              [
                79.85427859897811,
                69.35452667906293
              ],
              [
                80.25983524020415,
                69.35571523746819
              ],
              [
                80.73422488826793,
                69.30812124330072
              ],
              [
                80.96687218560282,
                69.20910919913018
              ],
              [
                81.32385297983114,
                69.28564199538175
              ],
              [
                81.61065718008479,
                69.28641714083835
              ],
              [
                81.6256433450643,
                69.4095104033824
              ],
              [
                81.78315311102722,
                69.42873403624674
              ],
              [
                81.92939741415933,
                69.34930735924718
              ],
              [
                81.77219770655887,
                69.23290619576431
              ],
              [
                81.89322391065491,
                69.18267670416651
              ],
              [
                82.25692264236602,
                69.15670929629698
              ],
              [
                82.49680464112123,
                69.11051056610972
              ],
              [
                82.33268029226167,
                69.06203807189945
              ],
              [
                82.48068159368057,
                68.99514293140112
              ],
              [
                82.54589725115716,
                68.84029450129015
              ],
              [
                83.01542931461114,
                68.68386994094499
              ],
              [
                82.86660118999288,
                68.62777517438474
              ],
              [
                82.53587202267568,
                68.61074778937893
              ],
              [
                82.70960818886681,
                68.41411896411887
              ],
              [
                82.68056603399526,
                68.28275747317883
              ],
              [
                82.54961795420519,
                68.17909454997346
              ],
              [
                82.39458865784025,
                68.1766140812748
              ],
              [
                82.35355756972604,
                67.94350169504713
              ],
              [
                82.05920861238752,
                67.94846263334381
              ],
              [
                81.73054650261895,
                67.90753489891642
              ],
              [
                81.88175174404773,
                67.79927277351965
              ],
              [
                82.10034305238992,
                67.72439362276742
              ],
              [
                82.10964480956028,
                67.60900014873783
              ],
              [
                82.38683719338172,
                67.52360484488764
              ],
              [
                82.25609581916666,
                67.40911570932252
              ],
              [
                82.35252404185104,
                67.32798370998017
              ],
              [
                82.11729292213062,
                67.24380280205764
              ],
              [
                82.79570112470708,
                66.97658397077362
              ],
              [
                83.04178429610835,
                66.89100779887082
              ],
              [
                83.16188032421758,
                66.81798900009227
              ],
              [
                83.2928284040076,
                66.66301138057071
              ],
              [
                83.07806115060157,
                66.57888214769292
              ],
              [
                83.09098025893178,
                66.45917369231199
              ],
              [
                83.2624426610999,
                66.38943634700979
              ],
              [
                83.5246488790425,
                66.1729637721603
              ],
              [
                83.38057498624659,
                66.13952912157168
              ],
              [
                83.29613569500629,
                66.05831960696423
              ],
              [
                83.52123823435699,
                65.90832876236249
              ],
              [
                83.51813764803398,
                65.82249420804123
              ],
              [
                84.03097456272587,
                65.79303864201967
              ],
              [
                84.16833051983758,
                65.70338003186293
              ],
              [
                84.31943240757948,
                65.68441478141699
              ],
              [
                84.29090701664546,
                65.61315298092529
              ],
              [
                84.42991662015584,
                65.55139964497761
              ],
              [
                84.55021935384008,
                65.43342235036113
              ],
              [
                84.58556603414513,
                65.31110423417306
              ],
              [
                84.52334760930466,
                65.21340993871769
              ],
              [
                84.38816206342847,
                65.17524689382907
              ],
              [
                84.31281782378352,
                65.09845571605842
              ],
              [
                84.38681847539232,
                64.99386261686624
              ],
              [
                84.27891808520144,
                64.94032583337048
              ],
              [
                84.47012088417142,
                64.8901996927616
              ],
              [
                84.81976362509118,
                64.93071401603896
              ],
              [
                84.96766157372264,
                64.89143992801024
              ],
              [
                85.18439253099046,
                64.75077667900052
              ],
              [
                85.6099996282802,
                64.82777456324544
              ],
              [
                85.85897667773145,
                64.75635773402217
              ],
              [
                85.8119511252442,
                64.65631216107732
              ],
              [
                85.91602745959955,
                64.58848684369286
              ],
              [
                85.84450727668946,
                64.50102448229399
              ],
              [
                85.95075402228025,
                64.32852855135155
              ],
              [
                86.02806196488774,
                64.27979767472289
              ],
              [
                85.93421756368957,
                64.12275299675338
              ],
              [
                85.9481702007941,
                64.05335154913467
              ],
              [
                85.5335185079727,
                63.936717840755705
              ],
              [
                85.37311486216112,
                63.80840526019455
              ],
              [
                85.33301395093304,
                63.70078908994452
              ],
              [
                85.0967493024383,
                63.534158433964535
              ],
              [
                85.27637658111428,
                63.5223762071962
              ],
              [
                85.37786909398346,
                63.46651398373331
              ],
              [
                85.4102185398537,
                63.353187568151725
              ],
              [
                85.6405920758636,
                63.374168199302915
              ],
              [
                85.46943973205794,
                63.14919485116144
              ],
              [
                85.58395470604484,
                63.053877672516535
              ],
              [
                85.51832563741817,
                62.93256724758038
              ],
              [
                85.32433230958839,
                62.869263618021535
              ],
              [
                85.2252169126304,
                62.80123159416269
              ],
              [
                85.09003136585483,
                62.637985745345816
              ],
              [
                84.95773969892792,
                62.592872218977675
              ],
              [
                84.86089806509358,
                62.451227118936345
              ],
              [
                84.74555626790738,
                62.410351061352344
              ],
              [
                84.43570437985323,
                62.17796214553658
              ],
              [
                84.28904666467179,
                62.27622488087354
              ],
              [
                84.23695682199968,
                62.37670970339008
              ],
              [
                84.09588016094062,
                62.375107733834795
              ],
              [
                83.79822391080478,
                62.56026439068904
              ],
              [
                83.53291710833787,
                62.5248143584958
              ],
              [
                83.31070844883578,
                62.45701487953306
              ],
              [
                83.03351606591366,
                62.529516913474765
              ],
              [
                83.00995161327631,
                62.594680895007286
              ],
              [
                82.7410274596495,
                62.68015371412258
              ],
              [
                82.73265587756669,
                62.75722911183402
              ],
              [
                82.28792850109943,
                62.77508332003919
              ],
              [
                82.07347130695524,
                62.80004303755612
              ],
              [
                81.83979047994666,
                62.691935939991595
              ],
              [
                81.60042524602824,
                62.773067939333885
              ],
              [
                81.34917443165466,
                62.82115285901722
              ],
              [
                81.19497195758976,
                62.949646308530305
              ],
              [
                81.07466922390552,
                63.11743968449383
              ],
              [
                80.58415652930034,
                63.08255809218218
              ],
              [
                80.57444135918132,
                63.018996080204886
              ],
              [
                80.07317996568281,
                62.82619131078036
              ],
              [
                79.91474002463241,
                62.79203318977983
              ],
              [
                79.82006880113425,
                62.6037242697592
              ],
              [
                78.79305138461365,
                62.615093085377566
              ],
              [
                78.37943322056663,
                62.56775747272917
              ],
              [
                77.96653852693146,
                62.47799550978493
              ],
              [
                77.88902387874896,
                62.557267158052866
              ],
              [
                77.3269910012337,
                62.710436103343454
              ],
              [
                77.13217085200318,
                62.812962144986955
              ],
              [
                77.02623416477485,
                62.97501943629794
              ],
              [
                76.62264122920931,
                63.03778046349754
              ],
              [
                76.28943159409278,
                62.950008042836885
              ],
              [
                76.24023563037002,
                63.018841051473316
              ],
              [
                75.80274295442376,
                63.113977362964874
              ],
              [
                75.69970014794342,
                63.091239733526834
              ],
              [
                75.36359663297821,
                63.107827867162314
              ],
              [
                74.91452843583863,
                63.0320185413226
              ],
              [
                74.50742150280007,
                63.04323232731002
              ],
              [
                74.24108117065947,
                63.172009995864585
              ],
              [
                73.36805952262881,
                63.2069432641203
              ],
              [
                73.28393029244899,
                63.315024523263105
              ],
              [
                73.10378624893622,
                63.436257432934156
              ],
              [
                72.90700239494453,
                63.393288479379805
              ],
              [
                72.65502811105847,
                63.28016876937318
              ],
              [
                72.16079471160663,
                63.29923737170731
              ],
              [
                71.96370079925248,
                63.197073066169025
              ],
              [
                71.80546756377703,
                63.218880520519576
              ],
              [
                71.60796024027286,
                63.18523916345657
              ],
              [
                71.56909956159546,
                63.55141836206775
              ],
              [
                71.38761193184513,
                63.674614977399244
              ],
              [
                70.91384240140565,
                63.692391669439985
              ],
              [
                70.8131767108365,
                63.82171194125306
              ],
              [
                70.6376835472579,
                63.90323151332365
              ],
              [
                70.56967736182077,
                64.01542104824273
              ],
              [
                70.75478234183157,
                64.10022207289035
              ],
              [
                70.76894168541043,
                64.19354971015099
              ],
              [
                70.67210005067676,
                64.23680288454545
              ],
              [
                70.47273237519892,
                64.25160818147236
              ],
              [
                70.30685102715313,
                64.34356639317446
              ],
              [
                69.99989301894766,
                64.31589366296214
              ],
              [
                69.8253300313558,
                64.34103424673305
              ],
              [
                69.69314171721646,
                64.39999705741826
              ],
              [
                69.38959435369645,
                64.38852488901239
              ],
              [
                69.2440735209762,
                64.46583283072056
              ],
              [
                69.01483686742745,
                64.47182729779155
              ],
              [
                68.85918745343821,
                64.43570547113058
              ],
              [
                68.99044559069142,
                64.32961375606993
              ],
              [
                68.81061160733975,
                64.22124827698639
              ],
              [
                68.42500206938996,
                64.29597239900698
              ],
              [
                68.17860883962624,
                64.17616058993923
              ],
              [
                67.93562625544729,
                64.11758535378101
              ],
              [
                67.80932905469211,
                64.03200918187821
              ],
              [
                67.6791044453139,
                64.07903473616409
              ],
              [
                67.28067915182135,
                64.08061086729765
              ],
              [
                67.17091840965685,
                64.16285390888078
              ],
              [
                66.81869184815025,
                64.22561493608043
              ],
              [
                66.79585086502539,
                64.32129384993118
              ],
              [
                66.89165897008536,
                64.3834605979282
              ],
              [
                66.93630740756078,
                64.48704600676774
              ],
              [
                66.681645949401,
                64.55745514653773
              ],
              [
                66.43401248618727,
                64.51523550091758
              ],
              [
                66.14607140527113,
                64.58592885972905
              ],
              [
                65.8834517761785,
                64.56861725478245
              ],
              [
                65.39965701725748,
                64.57135610589955
              ],
              [
                65.17589806504361,
                64.4457823764555
              ],
              [
                64.99523725759332,
                64.46588450846326
              ],
              [
                64.76083296107225,
                64.4268429635319
              ],
              [
                64.6222367687119,
                64.43867686624435
              ],
              [
                64.4442631373339,
                64.35622711908627
              ],
              [
                64.01617557224483,
                64.35744151501387
              ],
              [
                63.895666131187,
                64.2871357289307
              ],
              [
                63.61144575421815,
                64.26848053684728
              ],
              [
                63.41714236802585,
                64.32387767231671
              ],
              [
                63.502615187141146,
                64.37113576880068
              ],
              [
                63.46664839101038,
                64.45053660827784
              ],
              [
                63.21477745991183,
                64.52595836048994
              ],
              [
                62.699150018158775,
                64.49218781221771
              ],
              [
                62.532028435763664,
                64.5599872911805
              ],
              [
                62.600448032350755,
                64.64504669914584
              ],
              [
                62.802812941364095,
                64.72628205037631
              ],
              [
                62.798988884629296,
                64.84743744658084
              ],
              [
                62.678686150945055,
                64.87805573168663
              ],
              [
                62.801469354227265,
                65.05143016177254
              ],
              [
                62.816662224781794,
                65.29157054294615
              ],
              [
                62.5165255059473,
                65.33880280190778
              ],
              [
                62.3735884947132,
                65.4488736033341
              ],
              [
                62.41058881961828,
                65.51540701042518
              ],
              [
                62.27840050637826,
                65.62291982698838
              ],
              [
                62.018468051559296,
                65.71712596339245
              ],
              [
                62.504123163353256,
                65.83091746696749
              ],
              [
                62.83857303191985,
                65.86926137990872
              ],
              [
                62.80746382039894,
                65.93659577087811
              ],
              [
                62.87019900917693,
                66.07911937096219
              ],
              [
                63.06584598160674,
                66.23192658104682
              ],
              [
                63.24061567567287,
                66.31311025723255
              ],
              [
                63.30572798036195,
                66.40023672094787
              ],
              [
                63.8085396665723,
                66.54715281854772
              ],
              [
                63.96925337074646,
                66.64631989234914
              ],
              [
                64.31558881976821,
                66.66771393554967
              ],
              [
                64.56694298692929,
                66.79364940019963
              ],
              [
                64.99916466711568,
                66.86542796552817
              ],
              [
                65.11616010890185,
                66.90831940381742
              ],
              [
                65.08980512920334,
                67.05409861895606
              ],
              [
                65.19016075961133,
                67.14499746436144
              ],
              [
                65.42218794112057,
                67.215122382392
              ],
              [
                65.70795861170052,
                67.33501170492622
              ],
              [
                65.93719526614859,
                67.39322520587854
              ],
              [
                66.11000125455422,
                67.48877492941944
              ],
              [
                66.02587202257575,
                67.57605642456429
              ],
              [
                65.8360128107426,
                67.55515330687956
              ],
              [
                65.83115522703207,
                67.64266734512182
              ],
              [
                66.20591271330107,
                67.6930260279288
              ],
              [
                66.02235802600205,
                67.79420848333478
              ],
              [
                66.08312951001886,
                67.93363149709586
              ],
              [
                65.43655399027438,
                67.91996308083151
              ],
              [
                65.28979292230548,
                68.0123347027843
              ],
              [
                65.33010053910857,
                68.08468170799438
              ],
              [
                65.27273969887796,
                68.21640493414037
              ],
              [
                65.480478957338,
                68.43044871713454
              ],
              [
                65.65431847541726,
                68.55617747710886
              ],
              [
                65.51665245994303,
                68.58837189424747
              ],
              [
                65.32637983606054,
                68.73001699518812
              ],
              [
                65.31490766765472,
                68.80329417638512
              ],
              [
                65.06448367737977,
                68.8139911975357
              ],
              [
                64.9042867371432,
                68.871352036867
              ],
              [
                64.55412723228591,
                68.87140371371038
              ],
              [
                64.54513553167942,
                69.03219493314964
              ],
              [
                64.9899662618335,
                69.20471670251379
              ],
              [
                65.0362402510262,
                69.26873497135483
              ]
            ]
          ],
          [
            [
              [
                76.25068359375001,
                73.5552734375
              ],
              [
                76.75605468750001,
                73.44580078125
              ],
              [
                76.65937500000001,
                73.439501953125
              ],
              [
                76.23447265625003,
                73.476220703125
              ],
              [
                76.08310546875003,
                73.523486328125
              ],
              [
                76.13955078125002,
                73.554296875
              ],
              [
                76.25068359375001,
                73.5552734375
              ]
            ]
          ],
          [
            [
              [
                77.74853515625,
                72.631201171875
              ],
              [
                78.27910156249999,
                72.55322265625
              ],
              [
                78.35292968750002,
                72.504296875
              ],
              [
                78.36513671875002,
                72.482421875
              ],
              [
                78.15449218750001,
                72.4169921875
              ],
              [
                78.00722656250002,
                72.39248046875
              ],
              [
                77.78085937500003,
                72.308544921875
              ],
              [
                77.63251953125001,
                72.291259765625
              ],
              [
                77.14560546875003,
                72.281884765625
              ],
              [
                76.90595703125001,
                72.29765625
              ],
              [
                76.87109375,
                72.317041015625
              ],
              [
                76.90312499999999,
                72.365576171875
              ],
              [
                77.14951171875003,
                72.439208984375
              ],
              [
                77.26044921875001,
                72.4861328125
              ],
              [
                77.37783203125002,
                72.565283203125
              ],
              [
                77.57871093750003,
                72.630859375
              ],
              [
                77.74853515625,
                72.631201171875
              ]
            ]
          ],
          [
            [
              [
                74.4087890625,
                73.13046875
              ],
              [
                74.59990234375002,
                73.12177734375
              ],
              [
                74.72529296875001,
                73.108154296875
              ],
              [
                74.9615234375,
                73.0625
              ],
              [
                74.74257812500002,
                73.03271484375
              ],
              [
                74.64726562500002,
                72.96904296875
              ],
              [
                74.66015625,
                72.929296875
              ],
              [
                74.69716796875002,
                72.90771484375
              ],
              [
                74.66054687500002,
                72.8734375
              ],
              [
                74.63837890625001,
                72.86376953125
              ],
              [
                74.58808593750001,
                72.88115234375
              ],
              [
                74.43476562500001,
                72.907666015625
              ],
              [
                74.1806640625,
                72.975341796875
              ],
              [
                74.1001953125,
                73.021533203125
              ],
              [
                74.14238281250002,
                73.074365234375
              ],
              [
                74.19853515625002,
                73.10908203125
              ],
              [
                74.4087890625,
                73.13046875
              ]
            ]
          ],
          [
            [
              [
                76.05156249999999,
                73.549267578125
              ],
              [
                75.9009765625,
                73.481494140625
              ],
              [
                75.8271484375,
                73.459130859375
              ],
              [
                75.50371093750002,
                73.456640625
              ],
              [
                75.3443359375,
                73.432275390625
              ],
              [
                75.375,
                73.477392578125
              ],
              [
                75.56972656250002,
                73.540625
              ],
              [
                75.93017578125,
                73.5736328125
              ],
              [
                76.03945312500002,
                73.559912109375
              ],
              [
                76.05156249999999,
                73.549267578125
              ]
            ]
          ],
          [
            [
              [
                66.45771484375001,
                70.698779296875
              ],
              [
                66.56093750000002,
                70.541748046875
              ],
              [
                66.56855468750001,
                70.50146484375
              ],
              [
                66.51582031250001,
                70.514892578125
              ],
              [
                66.44863281250002,
                70.56103515625
              ],
              [
                66.40761718750002,
                70.615771484375
              ],
              [
                66.39482421875002,
                70.727294921875
              ],
              [
                66.41816406250001,
                70.75712890625
              ],
              [
                66.44023437500002,
                70.77265625
              ],
              [
                66.462890625,
                70.7693359375
              ],
              [
                66.45771484375001,
                70.698779296875
              ]
            ]
          ],
          [
            [
              [
                67.21611328125002,
                69.575390625
              ],
              [
                67.32890625000002,
                69.572119140625
              ],
              [
                67.34492187500001,
                69.529833984375
              ],
              [
                67.26396484375002,
                69.442529296875
              ],
              [
                67.09785156250001,
                69.44716796875
              ],
              [
                67.04726562500002,
                69.467041015625
              ],
              [
                67.02587890625,
                69.483203125
              ],
              [
                67.21611328125002,
                69.575390625
              ]
            ]
          ],
          [
            [
              [
                71.444921875,
                73.34208984375
              ],
              [
                71.58955078125001,
                73.283154296875
              ],
              [
                71.63046875,
                73.2248046875
              ],
              [
                71.62617187500001,
                73.173974609375
              ],
              [
                71.35566406250001,
                73.162451171875
              ],
              [
                70.88671875,
                73.11962890625
              ],
              [
                70.67392578125,
                73.09501953125
              ],
              [
                70.38037109375,
                73.048095703125
              ],
              [
                70.29833984375,
                73.044482421875
              ],
              [
                70.11865234375,
                73.056298828125
              ],
              [
                70.04072265625001,
                73.037158203125
              ],
              [
                69.92011718750001,
                73.084521484375
              ],
              [
                69.93037109375001,
                73.126611328125
              ],
              [
                69.98564453125002,
                73.16923828125
              ],
              [
                70.01875000000001,
                73.22431640625
              ],
              [
                69.99589843750002,
                73.359375
              ],
              [
                70.14960937500001,
                73.4447265625
              ],
              [
                70.35000000000002,
                73.47763671875
              ],
              [
                70.94023437500002,
                73.514404296875
              ],
              [
                71.02324218750002,
                73.50419921875
              ],
              [
                71.1412109375,
                73.477978515625
              ],
              [
                71.23164062500001,
                73.44775390625
              ],
              [
                71.351171875,
                73.372216796875
              ],
              [
                71.444921875,
                73.34208984375
              ]
            ]
          ]
        ]
      }
    }
  ]
}